CCSDS_OMM_VERS,COMMENT,CREATION_DATE,ORIGINATOR,OBJECT_NAME,OBJECT_ID,CENTER_NAME,REF_FRAME,TIME_SYSTEM,MEAN_ELEMENT_THEORY,EPOCH,MEAN_MOTION,ECCENTRICITY,INCLINATION,RA_OF_ASC_NODE,ARG_OF_PERICENTER,MEAN_ANOMALY,EPHEMERIS_TYPE,CLASSIFICATION_TYPE,NORAD_CAT_ID,ELEMENT_SET_NO,REV_AT_EPOCH,BSTAR,MEAN_MOTION_DOT,MEAN_MOTION_DDOT,SEMIMAJOR_AXIS,PERIOD,APOAPSIS,PERIAPSIS,OBJECT_TYPE,RCS_SIZE,COUNTRY_CODE,LAUNCH_DATE,SITE,DECAY_DATE,FILE,GP_ID,TLE_LINE0,TLE_LINE1,TLE_LINE2
"2.0","GENERATED VIA SPACE-TRACK.ORG API","2023-01-01T17:55:23","18 SPCS","ARIANE 5 DEB (SYLDA)","2002-035D","EARTH","TEME","UTC","SGP4","2023-01-01T07:26:42.563040","2.26569902","0.71346590","5.2236","131.8345","19.3308","318.8395","0","U","27463","999","16944","0.00114350000000","-0.00000028","0.0000000000000","24486.894","635.565","35579.322","638.195","DEBRIS","LARGE","FR","2002-07-05","FRGUI","","3728759","221916477","0 ARIANE 5 DEB (SYLDA)","1 27463U 02035D   23001.31021485 -.00000028  00000-0  11435-2 0  9999","2 27463   5.2236 131.8345 7134659  19.3308 318.8395  2.26569902169448"
"2.0","GENERATED VIA SPACE-TRACK.ORG API","2023-01-02T07:56:13","18 SPCS","ARIANE 5 DEB (SYLDA)","2002-035D","EARTH","TEME","UTC","SGP4","2023-01-02T05:37:38.580384","2.26570069","0.71346000","5.2256","131.4951","20.0112","352.7090","0","U","27463","999","16953","0.00087503000000","-0.00000069","0.0000000000000","24486.882","635.565","35579.157","638.336","DEBRIS","LARGE","FR","2002-07-05","FRGUI","","3729197","221999248","0 ARIANE 5 DEB (SYLDA)","1 27463U 02035D   23002.23447431 -.00000069  00000-0  87503-3 0  9999","2 27463   5.2256 131.4951 7134600  20.0112 352.7090  2.26570069169532"
"2.0","GENERATED VIA SPACE-TRACK.ORG API","2023-01-02T02:38:49","18 SPCS","ATLAS 5 CENTAUR R/B","2002-038B","EARTH","TEME","UTC","SGP4","2023-01-01T11:12:11.150208","3.34679909","0.65057920","18.1435","307.4221","354.7493","0.7567","0","U","27500","999","18951","0.00299800000000","0.00040011","0.0000000000000","18879.134","430.262","24783.372","218.627","ROCKET BODY","LARGE","US","2002-08-21","AFETR","","3728952","221973089","0 ATLAS 5 CENTAUR R/B","1 27500U 02038B   23001.46679572  .00040011  00000-0  29980-2 0  9995","2 27500  18.1435 307.4221 6505792 354.7493   0.7567  3.34679909189515"
"2.0","GENERATED VIA SPACE-TRACK.ORG API","2023-01-02T17:42:09","18 SPCS","ATLAS 5 CENTAUR R/B","2002-038B","EARTH","TEME","UTC","SGP4","2023-01-02T08:42:37.990944","3.34748488","0.65053950","18.1402","306.8456","355.8136","0.5814","0","U","27500","999","18954","0.00271520000000","0.00036329","0.0000000000000","18876.556","430.174","24778.366","218.476","ROCKET BODY","LARGE","US","2002-08-21","AFETR","","3729583","222015390","0 ATLAS 5 CENTAUR R/B","1 27500U 02038B   23002.36293971  .00036329  00000-0  27152-2 0  9996","2 27500  18.1402 306.8456 6505395 355.8136   0.5814  3.34748488189542"
"2.0","GENERATED VIA SPACE-TRACK.ORG API","2023-01-02T06:26:13","18 SPCS","ATLAS 5 CENTAUR R/B","2002-038B","EARTH","TEME","UTC","SGP4","2023-01-02T01:32:30.825024","3.34726372","0.65055200","18.1406","307.0400","355.4546","0.6405","0","U","27500","999","18950","0.00281560000000","0.00037638","0.0000000000000","18877.387","430.202","24779.974","218.530","ROCKET BODY","LARGE","US","2002-08-21","AFETR","","3729114","221997012","0 ATLAS 5 CENTAUR R/B","1 27500U 02038B   23002.06424566  .00037638  00000-0  28156-2 0  9998","2 27500  18.1406 307.0400 6505520 355.4546   0.6405  3.34726372189500"
"2.0","GENERATED VIA SPACE-TRACK.ORG API","2023-01-03T02:40:54","18 SPCS","ATLAS 5 CENTAUR R/B","2002-038B","EARTH","TEME","UTC","SGP4","2023-01-02T15:52:43.462560","3.34771278","0.65052860","18.1397","306.6541","356.1667","0.5236","0","U","27500","999","18955","0.00287290000000","0.00038531","0.0000000000000","18875.699","430.144","24776.746","218.382","ROCKET BODY","LARGE","US","2002-08-21","AFETR","","3729873","222048935","0 ATLAS 5 CENTAUR R/B","1 27500U 02038B   23002.66161415  .00038531  00000-0  28729-2 0  9994","2 27500  18.1397 306.6541 6505286 356.1667   0.5236  3.34771278189552"
"2.0","GENERATED VIA SPACE-TRACK.ORG API","2023-01-01T17:55:23","18 SPCS","ATLAS 5 CENTAUR R/B","2002-038B","EARTH","TEME","UTC","SGP4","2023-01-01T11:12:11.157120","3.34680071","0.65058500","18.1424","307.4244","354.7446","0.7575","0","U","27500","999","18951","0.00292840000000","0.00039187","0.0000000000000","18879.128","430.262","24783.471","218.516","ROCKET BODY","LARGE","US","2002-08-21","AFETR","","3728759","221917217","0 ATLAS 5 CENTAUR R/B","1 27500U 02038B   23001.46679580  .00039187  00000-0  29284-2 0  9993","2 27500  18.1424 307.4244 6505850 354.7446   0.7575  3.34680071189512"
"2.0","GENERATED VIA SPACE-TRACK.ORG API","2023-01-02T08:06:14","18 SPCS","SL-12 R/B(2)","2002-039B","EARTH","TEME","UTC","SGP4","2023-01-02T01:15:20.563776","2.01842999","0.59527360","23.4423","339.1684","233.9390","55.4495","0","U","27504","999","15015","0.00000000000000","0.00000270","0.0000000000000","26447.993","713.426","35813.649","4326.066","ROCKET BODY","LARGE","CIS","2002-08-22","TTMTR","","3729221","221999584","0 SL-12 R/B(2)","1 27504U 02039B   23002.05232134  .00000270  00000-0  00000+0 0  9997","2 27504  23.4423 339.1684 5952736 233.9390  55.4495  2.01842999150156"
"2.0","GENERATED VIA SPACE-TRACK.ORG API","2023-01-02T17:42:09","18 SPCS","SL-12 R/B(2)","2002-039B","EARTH","TEME","UTC","SGP4","2023-01-02T01:15:20.586240","2.01842977","0.59527320","23.4424","339.1685","233.9384","55.4499","0","U","27504","999","15007","0.00000000000000","0.00000270","0.0000000000000","26447.995","713.426","35813.642","4326.077","ROCKET BODY","LARGE","CIS","2002-08-22","TTMTR","","3729583","222015882","0 SL-12 R/B(2)","1 27504U 02039B   23002.05232160  .00000270  00000-0  00000-0 0  9997","2 27504  23.4424 339.1685 5952732 233.9384  55.4499  2.01842977150078"
"2.0","GENERATED VIA SPACE-TRACK.ORG API","2023-01-01T17:55:23","18 SPCS","SL-12 R/B(2)","2002-039B","EARTH","TEME","UTC","SGP4","2023-01-01T01:29:06.072576","2.01842146","0.59527820","23.4432","339.3195","233.6739","55.7663","0","U","27504","999","15005","0.00000000000000","0.00000279","0.0000000000000","26448.067","713.429","35813.890","4325.974","ROCKET BODY","LARGE","CIS","2002-08-22","TTMTR","","3728759","221916229","0 SL-12 R/B(2)","1 27504U 02039B   23001.06187584  .00000279  00000-0  00000-0 0  9995","2 27504  23.4432 339.3195 5952782 233.6739  55.7663  2.01842146150053"
"2.0","GENERATED VIA SPACE-TRACK.ORG API","2023-01-02T06:26:13","18 SPCS","ARIANE 5 R/B","2002-040C","EARTH","TEME","UTC","SGP4","2023-01-01T22:13:25.855680","2.27221219","0.71587870","4.7350","147.4483","80.3893","20.0295","0","U","27510","999","16895","0.00072550000000","0.00000041","0.0000000000000","24440.078","633.744","35558.074","565.812","ROCKET BODY","LARGE","FR","2002-08-28","FRGUI","","3729115","221997036","0 ARIANE 5 R/B","1 27510U 02040C   23001.92599370  .00000041  00000-0  72550-3 0  9998","2 27510   4.7350 147.4483 7158787  80.3893  20.0295  2.27221219168956"
"2.0","GENERATED VIA SPACE-TRACK.ORG API","2023-01-03T02:40:54","18 SPCS","ARIANE 5 R/B","2002-040C","EARTH","TEME","UTC","SGP4","2023-01-02T19:02:00.035808","2.27221311","0.71588340","4.7345","147.0723","81.0916","9.2797","0","U","27510","999","16894","0.00074701000000","0.00000056","0.0000000000000","24440.071","633.743","35558.178","565.695","ROCKET BODY","LARGE","FR","2002-08-28","FRGUI","","3729873","222049686","0 ARIANE 5 R/B","1 27510U 02040C   23002.79305597  .00000056  00000-0  74701-3 0  9996","2 27510   4.7345 147.0723 7158834  81.0916   9.2797  2.27221311168948"
"2.0","GENERATED VIA SPACE-TRACK.ORG API","2023-01-01T17:55:23","18 SPCS","ARIANE 5 R/B","2002-040C","EARTH","TEME","UTC","SGP4","2023-01-01T12:41:57.873120","2.27221178","0.71587540","4.7353","147.6202","80.0679","55.4081","0","U","27510","999","16891","0.00066889000000","0.00000029","0.0000000000000","24440.081","633.744","35557.998","565.893","ROCKET BODY","LARGE","FR","2002-08-28","FRGUI","","3728759","221916480","0 ARIANE 5 R/B","1 27510U 02040C   23001.52914205  .00000029  00000-0  66889-3 0  9996","2 27510   4.7353 147.6202 7158754  80.0679  55.4081  2.27221178168918"
"2.0","GENERATED VIA SPACE-TRACK.ORG API","2023-01-02T17:42:09","18 SPCS","ARIANE 5 R/B","2002-040C","EARTH","TEME","UTC","SGP4","2023-01-02T09:33:37.552320","2.27221274","0.71588010","4.7347","147.2435","80.7718","46.4143","0","U","27510","999","16893","0.00075378000000","0.00000051","0.0000000000000","24440.074","633.743","35558.101","565.776","ROCKET BODY","LARGE","FR","2002-08-28","FRGUI","","3729583","222015643","0 ARIANE 5 R/B","1 27510U 02040C   23002.39835130  .00000051  00000-0  75378-3 0  9999","2 27510   4.7347 147.2435 7158801  80.7718  46.4143  2.27221274168937"
"2.0","GENERATED VIA SPACE-TRACK.ORG API","2023-01-02T17:42:09","18 SPCS","ARIANE 5 DEB (SYLDA)","2002-040D","EARTH","TEME","UTC","SGP4","2023-01-02T04:41:16.811808","2.25423703","0.71486440","5.2854","205.2679","321.3507","220.0081","0","U","27511","999","16735","0.00083110000000","0.00000011","0.0000000000000","24569.828","638.797","35755.789","627.598","DEBRIS","LARGE","FR","2002-08-28","FRGUI","","3729583","222016382","0 ARIANE 5 DEB (SYLDA)","1 27511U 02040D   23002.19533347  .00000011  00000-0  83110-3 0  9992","2 27511   5.2854 205.2679 7148644 321.3507 220.0081  2.25423703167351"
"2.0","GENERATED VIA SPACE-TRACK.ORG API","2023-01-01T17:55:23","18 SPCS","ARIANE 5 DEB (SYLDA)","2002-040D","EARTH","TEME","UTC","SGP4","2023-01-01T10:24:42.615648","2.25423618","0.71487060","5.2844","205.5605","320.7795","322.0297","0","U","27511","999","16733","0.00089768000000","0.00000033","0.0000000000000","24569.834","638.797","35755.952","627.447","DEBRIS","LARGE","FR","2002-08-28","FRGUI","","3728759","221916730","0 ARIANE 5 DEB (SYLDA)","1 27511U 02040D   23001.43382657  .00000033  00000-0  89768-3 0  9993","2 27511   5.2844 205.5605 7148706 320.7795 322.0297  2.25423618167338"
